SatCatId,ObjectName,LaunchYear,OrbitalPeriod,LaunchMass,StatusCode,Inclination,Status,UcsData,OrbitClassEstimated,LaunchSiteCountry,Owner,UseType,Purpose,LaunchVehicleClass,TLE1,TLE2,MeanMotion,Eccentricity,OrbitClass
56793,STARLINK-6052,2023,96.11,-1.0,+,70.0,Active,0,LEO,USA,USA,Unknown,Unknown,Unknown,1 56793U 23078AC  25205.52686998  .00000482  00000+0  48240-4 0  9992,2 56793  69.9993 199.7324 0004583 263.8931  96.1706 14.98331339118502,14.98331339,0.0004583,LEO
56794,STARLINK-6060,2023,96.11,-1.0,+,70.0,Active,0,LEO,USA,USA,Unknown,Unknown,Unknown,1 56794U 23078AD  25205.76866143  .00001218  00000+0  10988-3 0  9996,2 56794  69.9998 179.1035 0003014 269.1068  90.9746 14.98319428119295,14.98319428,0.0003014,LEO
56795,STARLINK-6061,2023,96.11,-1.0,+,70.0,Active,0,LEO,USA,USA,Unknown,Unknown,Unknown,1 56795U 23078AE  25205.54348167  .00000462  00000+0  46534-4 0  9991,2 56795  69.9997 179.5214 0003624 268.9540  91.1204 14.98334370119001,14.9833437,0.0003624,LEO
56796,STARLINK-6049,2023,96.11,-1.0,+,70.0,Active,0,LEO,USA,USA,Unknown,Unknown,Unknown,1 56796U 23078AF  25205.67709317  .00000813  00000+0  75974-4 0  9994,2 56796  69.9990 199.4549 0003705 265.4048  94.6688 14.98315504118788,14.98315504,0.0003705,LEO
56797,STARLINK-6058,2023,96.11,-1.0,+,70.0,Active,0,LEO,USA,USA,Unknown,Unknown,Unknown,1 56797U 23078AG  25205.75635840  .00001868  00000+0  16421-3 0  9995,2 56797  69.9987 199.3243 0003230 269.2350  90.8438 14.98344379118790,14.98344379,0.000323,LEO
56799,STARLINK-5953,2023,96.1,-1.0,+,70.0,Active,0,LEO,USA,USA,Unknown,Unknown,Unknown,1 56799U 23078AJ  25205.59780864 -.00001504  00000+0 -11827-3 0  9990,2 56799  69.9991 199.5754 0003698 265.4340  94.6396 14.98318840118510,14.9831884,0.0003698,LEO
56800,STARLINK-6036,2023,96.11,-1.0,+,70.0,Active,0,LEO,USA,USA,Unknown,Unknown,Unknown,1 56800U 23078AK  25205.53521547  .00000426  00000+0  43496-4 0  9996,2 56800  69.9992 199.7610 0004129 266.1073  93.9614 14.98334913118501,14.98334913,0.0004129,LEO
56801,STARLINK-6087,2023,96.28,-1.0,+,70.0,Active,0,LEO,USA,USA,Unknown,Unknown,Unknown,1 56801U 23078AL  25205.75177188 -.00229424  00000+0 -20056-1 0  9996,2 56801  69.9995 179.0445 0003454 271.1430  88.9333 14.97940871119299,14.97940871,0.0003454,LEO
56802,STARLINK-6070,2023,96.11,-1.0,+,70.0,Active,0,LEO,USA,USA,Unknown,Unknown,Unknown,1 56802U 23078AM  25205.56852996 -.00000343  00000+0 -20959-4 0  9995,2 56802  69.9996 179.6144 0004000 262.0103  98.0602 14.98329458119000,14.98329458,0.0004,LEO
56803,STARLINK-6029,2023,96.11,-1.0,+,70.0,Active,0,LEO,USA,USA,Unknown,Unknown,Unknown,1 56803U 23078AN  25205.58946105 -.00000328  00000+0 -19682-4 0  9998,2 56803  69.9992 199.5492 0003391 268.4837  91.5933 14.98336422118519,14.98336422,0.0003391,LEO
56804,STARLINK-6069,2023,96.11,-1.0,+,70.0,Active,0,LEO,USA,USA,Unknown,Unknown,Unknown,1 56804U 23078AP  25205.76029929 -.00000341  00000+0 -20749-4 0  9996,2 56804  69.9997 179.0741 0003061 268.5450  91.5359 14.98329356119297,14.98329356,0.0003061,LEO
56805,STARLINK-6064,2023,96.11,-1.0,+,70.0,Active,0,LEO,USA,USA,Unknown,Unknown,Unknown,1 56805U 23078AQ  25205.76447287 -.00000187  00000+0 -78473-5 0  9994,2 56805  69.9998 179.0869 0003154 269.0620  91.0178 14.98328855119295,14.98328855,0.0003154,LEO
56806,STARLINK-6072,2023,96.11,-1.0,+,70.0,Active,0,LEO,USA,USA,Unknown,Unknown,Unknown,1 56806U 23078AR  25205.59316374 -.00000573  00000+0 -40203-4 0  9996,2 56806  70.0000 159.4119 0003027 265.8572  94.2241 14.98325258119764,14.98325258,0.0003027,LEO
56807,STARLINK-6073,2023,96.11,-1.0,+,70.0,Active,0,LEO,USA,USA,Unknown,Unknown,Unknown,1 56807U 23078AS  25205.54332211  .00000102  00000+0  16349-4 0  9990,2 56807  69.9995 179.5207 0003347 264.7613  95.3164 14.98329263119008,14.98329263,0.0003347,LEO
56808,STARLINK-6042,2023,96.11,-1.0,+,70.0,Active,0,LEO,USA,USA,Unknown,Unknown,Unknown,1 56808U 23078AT  25205.81607134 -.00000212  00000+0 -99994-5 0  9992,2 56808  69.9999 129.0895 0003126 269.7428  90.3373 14.98325227120544,14.98325227,0.0003126,LEO
56809,STARLINK-6040,2023,96.11,-1.0,+,70.0,Active,0,LEO,USA,USA,Unknown,Unknown,Unknown,1 56809U 23078AU  25205.50180842  .00002669  00000+0  23132-3 0  9996,2 56809  69.9988 199.6457 0003915 266.1494  93.9217 14.98347003118505,14.98347003,0.0003915,LEO
56810,STARLINK-6031,2023,96.11,-1.0,+,70.0,Active,0,LEO,USA,USA,Unknown,Unknown,Unknown,1 56810U 23078AV  25205.58527566  .00001028  00000+0  93949-4 0  9996,2 56810  69.9992 199.5346 0003745 266.4141  93.6590 14.98337961118515,14.98337961,0.0003745,LEO
56811,STARLINK-6063,2023,96.11,-1.0,+,70.0,Active,0,LEO,USA,USA,Unknown,Unknown,Unknown,1 56811U 23078AW  25205.59733700 -.00000542  00000+0 -37627-4 0  9990,2 56811  70.0001 159.4243 0003416 257.1349 102.9429 14.98327149119505,14.98327149,0.0003416,LEO
56812,STARLINK-6065,2023,96.11,-1.0,+,70.0,Active,0,LEO,USA,USA,Unknown,Unknown,Unknown,1 56812U 23078AX  25205.61859891 -.00000851  00000+0 -63576-4 0  9999,2 56812  69.9996 179.3875 0003100 270.6087  89.4717 14.98323021119017,14.98323021,0.00031,LEO
56813,STARLINK-6056,2023,96.11,-1.0,+,70.0,Active,0,LEO,USA,USA,Unknown,Unknown,Unknown,1 56813U 23078AY  25205.56457539 -.00000060  00000+0  27985-5 0  9993,2 56813  69.9988 199.4633 0003884 264.8458  95.2258 14.98331638118512,14.98331638,0.0003884,LEO
56814,STARLINK-6059,2023,96.11,-1.0,+,70.0,Active,0,LEO,USA,USA,Unknown,Unknown,Unknown,1 56814U 23078AZ  25205.57276089 -.00000420  00000+0 -27375-4 0  9997,2 56814  69.9989 199.4908 0003417 266.0604  94.0165 14.98336302118515,14.98336302,0.0003417,LEO
56816,STARLINK-6067,2023,96.11,-1.0,+,70.0,Active,0,LEO,USA,USA,Unknown,Unknown,Unknown,1 56816U 23078BB  25205.53914737  .00000191  00000+0  23789-4 0  9992,2 56816  69.9995 179.5060 0004148 252.7468 107.3237 14.98333244119009,14.98333244,0.0004148,LEO
56817,STARLINK-5982,2023,96.11,-1.0,+,70.0,Active,0,LEO,USA,USA,Unknown,Unknown,Unknown,1 56817U 23078BC  25205.78140529 -.00001195  00000+0 -92371-4 0  9990,2 56817  69.9991 199.0144 0003747 265.8860  94.1871 14.98319131118804,14.98319131,0.0003747,LEO
56818,STARLINK-6028,2023,96.11,-1.0,+,70.0,Active,0,LEO,USA,USA,Unknown,Unknown,Unknown,1 56818U 23078BD  25205.56441416 -.00000045  00000+0  40475-5 0  9997,2 56818  69.9988 199.4619 0003491 263.0469  97.0293 14.98329387119202,14.98329387,0.0003491,LEO
56823,STARLINK-30119,2023,95.84,-1.0,+,43.0,Active,0,LEO,USA,USA,Unknown,Unknown,Unknown,1 56823U 23079A   25205.47722278 -.00000049  00000+0  11489-4 0  9998,2 56823  43.0036 267.5594 0001743 277.9433  82.1212 15.02533915118987,15.02533915,0.0001743,LEO
56824,STARLINK-30120,2023,95.84,-1.0,+,43.0,Active,0,LEO,USA,USA,Unknown,Unknown,Unknown,1 56824U 23079B   25205.54037270 -.00000507  00000+0 -22451-4 0  9999,2 56824  43.0030 267.1766 0001554 281.3625  78.7042 15.02534567118886,15.02534567,0.0001554,LEO
56825,STARLINK-30084,2023,95.84,-1.0,+,43.0,Active,0,LEO,USA,USA,Unknown,Unknown,Unknown,1 56825U 23079C   25205.53703859  .00000118  00000+0  23835-4 0  9995,2 56825  43.0015 267.1464 0001791 277.0670  82.9969 15.02536318118566,15.02536318,0.0001791,LEO
56826,STARLINK-30114,2023,95.84,-1.0,+,43.0,Active,0,LEO,USA,USA,Unknown,Unknown,Unknown,1 56826U 23079D   25205.55366418  .00000487  00000+0  51135-4 0  9997,2 56826  43.0029 267.0810 0001405 277.0699  82.9983 15.02534844118882,15.02534844,0.0001405,LEO
56827,STARLINK-30151,2023,95.84,-1.0,+,43.0,Active,0,LEO,USA,USA,Unknown,Unknown,Unknown,1 56827U 23079E   25205.46390331 -.00000611  00000+0 -30182-4 0  9999,2 56827  43.0017 267.4545 0001273 274.0407  86.0290 15.02534481118553,15.02534481,0.0001273,LEO
56828,STARLINK-30152,2023,95.84,-1.0,+,43.0,Active,0,LEO,USA,USA,Unknown,Unknown,Unknown,1 56828U 23079F   25205.46057365 -.00000631  00000+0 -31638-4 0  9996,2 56828  43.0027 267.4337 0001395 266.2711  93.7972 15.02535009118559,15.02535009,0.0001395,LEO
56832,STARLINK-30128,2023,95.84,-1.0,+,43.0,Active,0,LEO,USA,USA,Unknown,Unknown,Unknown,1 56832U 23079K   25205.49877088 -.00000513  00000+0 -22887-4 0  9991,2 56832  43.0017 241.3016 0001427 280.8093  79.2589 15.02533289112453,15.02533289,0.0001427,LEO
56833,STARLINK-30131,2023,95.84,-1.0,+,43.0,Active,0,LEO,USA,USA,Unknown,Unknown,Unknown,1 56833U 23079L   25205.08882453  .00000381  00000+0  43267-4 0  9995,2 56833  43.0015 243.5475 0001499 279.6312  80.4361 15.02536525118795,15.02536525,0.0001499,LEO
56834,STARLINK-30069,2023,95.84,-1.0,+,43.0,Active,0,LEO,USA,USA,Unknown,Unknown,Unknown,1 56834U 23079M   25205.59023961 -.00004018  00000+0 -28284-3 0  9997,2 56834  43.0031 266.6866 0001495 265.6922  94.3750 15.02497598118570,15.02497598,0.0001495,LEO
56835,STARLINK-30144,2023,95.84,-1.0,+,43.0,Active,0,LEO,USA,USA,Unknown,Unknown,Unknown,1 56835U 23079N   25205.45391813 -.00000020  00000+0  13610-4 0  9993,2 56835  43.0037 267.3866 0001571 266.3348  93.7314 15.02531221118559,15.02531221,0.0001571,LEO
56836,STARLINK-30142,2023,95.84,-1.0,+,43.0,Active,0,LEO,USA,USA,Unknown,Unknown,Unknown,1 56836U 23079P   25205.58353962 -.00000454  00000+0 -18514-4 0  9991,2 56836  43.0029 266.6358 0001483 272.2677  87.7995 15.02535272118572,15.02535272,0.0001483,LEO
56837,STARLINK-30133,2023,95.84,-1.0,+,43.0,Active,0,LEO,USA,USA,Unknown,Unknown,Unknown,1 56837U 23079Q   25205.44725580  .00001103  00000+0  96715-4 0  9995,2 56837  43.0035 267.3245 0001389 277.4302  82.6382 15.02533714118551,15.02533714,0.0001389,LEO
56838,STARLINK-30123,2023,94.27,-1.0,P,43.0,Active,0,LEO,USA,USA,Unknown,Unknown,Unknown,1 56838U 23079R   25205.47448050  .00002881  00000+0  11406-3 0  9990,2 56838  42.9931 242.7689 0000231 302.3209  57.7620 15.27609230118847,15.2760923,2.31e-05,LEO
56839,STARLINK-30076,2023,95.84,-1.0,+,43.0,Active,0,LEO,USA,USA,Unknown,Unknown,Unknown,1 56839U 23079S   25205.44392525 -.00001249  00000+0 -77407-4 0  9996,2 56839  43.0041 267.2953 0001412 278.4937  81.5745 15.02531816118559,15.02531816,0.0001412,LEO
